[{"OBJECT_NAME":"IRIDIUM 125","OBJECT_ID":"2017-061K","EPOCH":"2026-03-09T21:31:26.578560","MEAN_MOTION":14.342175,"ECCENTRICITY":0.00017652,"INCLINATION":86.3918,"RA_OF_ASC_NODE":66.8822,"ARG_OF_PERICENTER":75.1905,"MEAN_ANOMALY":284.9486,"EPHEMERIS_TYPE":0,"CLASSIFICATION_TYPE":"U","NORAD_CAT_ID":42964,"ELEMENT_SET_NO":999,"REV_AT_EPOCH":44062,"BSTAR":-1.144702e-6,"MEAN_MOTION_DOT":1.7e-7,"MEAN_MOTION_DDOT":0},{"OBJECT_NAME":"CZ-4B DEB","OBJECT_ID":"1999-057SL","EPOCH":"2026-03-01T07:03:52.146720","MEAN_MOTION":14.27301601,"ECCENTRICITY":0.0122273,"INCLINATION":98.2481,"RA_OF_ASC_NODE":231.7617,"ARG_OF_PERICENTER":130.0895,"MEAN_ANOMALY":231.1083,"EPHEMERIS_TYPE":0,"CLASSIFICATION_TYPE":"U","NORAD_CAT_ID":35332,"ELEMENT_SET_NO":999,"REV_AT_EPOCH":20249,"BSTAR":0.00010497,"MEAN_MOTION_DOT":2.38e-6,"MEAN_MOTION_DDOT":0}]
